OBJECT_NAME,OBJECT_ID,EPOCH,MEAN_MOTION,ECCENTRICITY,INCLINATION,RA_OF_ASC_NODE,ARG_OF_PERICENTER,MEAN_ANOMALY,EPHEMERIS_TYPE,CLASSIFICATION_TYPE,NORAD_CAT_ID,ELEMENT_SET_NO,REV_AT_EPOCH,BSTAR,MEAN_MOTION_DOT,MEAN_MOTION_DDOT
GPS BIIR-5  (PRN 22),2000-040A,2026-07-11T16:25:05.022624,2.00557796,.0120552,54.8489,214.1892,302.6983,28.6662,0,U,26407,999,19043,0,.102E-5,0
GPS BIIR-8  (PRN 16),2003-005A,2026-07-11T14:10:57.299808,2.00559189,.0148212,54.8794,213.9991,53.1585,347.1351,0,U,27663,999,17180,0,.103E-5,0
GPS BIIR-11 (PRN 19),2004-009A,2026-07-11T07:49:37.305408,2.00553808,.0117053,54.8097,274.7110,174.1471,187.5645,0,U,28190,999,16343,0,-.8E-7,0
GPS BIIR-13 (PRN 02),2004-045A,2026-07-11T16:35:03.237216,2.00556859,.0170117,55.1205,323.9096,316.9755,13.2448,0,U,28474,999,15891,0,-.85E-6,0
GPS BIIRM-1 (PRN 17),2005-038A,2026-07-11T06:26:53.361024,2.00563928,.0128187,54.8586,272.2047,296.3630,53.4241,0,U,28874,999,15231,0,-.2E-7,0
INMARSAT 4-F2 (SOUTHPAN/PRN 122),2005-044A,2026-07-11T10:50:38.653728,1.00271318,.0002814,5.1250,43.6527,59.1174,132.7460,0,U,28899,999,7576,0,-.259E-5,0
GPS BIIRM-2 (PRN 31),2006-042A,2026-07-11T16:03:00.279936,2.00568391,.0107076,54.7126,150.3670,55.0446,122.5056,0,U,29486,999,14488,0,.3E-6,0
GPS BIIRM-4 (PRN 15),2007-047A,2026-07-11T03:47:02.948928,2.00554051,.0167652,54.1126,79.0777,87.8982,274.0650,0,U,32260,999,13729,0,-.43E-6,0
COSMOS 2433 (720),2007-052A,2026-07-10T20:20:46.755168,2.13104163,.0003393,65.5625,315.1381,203.0239,156.9646,0,U,32275,999,14556,0,-.62E-6,0
COSMOS 2432 (719),2007-052B,2026-07-11T02:43:27.160320,2.13103170,.0007445,65.5781,315.2575,323.5436,184.1107,0,U,32276,999,14559,0,-.63E-6,0
GPS BIIRM-5 (PRN 29),2007-062A,2026-07-11T10:44:22.765344,2.00561362,.0036031,55.0124,273.1765,167.2486,169.8682,0,U,32384,999,13599,0,-.3E-7,0
COSMOS 2434 (721),2007-065A,2026-07-10T04:17:51.767232,2.13101374,.00012665,64.3199,191.1401,327.2015,129.5148,0,U,32393,999,14426,0,.121E-5,0
COSMOS 2436 (723),2007-065C,2026-07-11T06:58:53.453280,2.13100061,.0017324,64.3285,191.1750,353.6446,8.2320,0,U,32395,999,14424,0,.11E-5,0
GPS BIIRM-8 (PRN 05),2009-043A,2026-07-11T06:34:59.882880,2.00552906,.0053752,56.2254,26.5066,84.2123,73.5929,0,U,35752,999,12384,0,-.54E-6,0
COSMOS 2456 (730),2009-070A,2026-07-09T15:08:13.476192,2.13103839,.0003794,65.0240,70.2070,337.6713,216.6373,0,U,36111,999,12890,0,-.25E-6,0
COSMOS 2457 (733),2009-070B,2026-07-11T07:44:38.555808,2.13101234,.0003927,65.0106,69.9929,122.6877,56.8251,0,U,36112,999,12894,0,-.2E-6,0
COSMOS 2460 (732),2010-007C,2026-07-10T14:49:45.835104,2.13101688,.0001799,65.4060,313.6745,138.8574,221.9345,0,U,36402,999,12723,0,-.61E-6,0
BEIDOU-2 IGSO-1 (C06),2010-036A,2026-07-07T14:57:11.145024,1.00266308,.0059224,54.3062,162.7756,225.1869,229.2421,0,U,36828,999,5830,0,-.58E-6,0
BEIDOU-2 G4 (C04),2010-057A,2026-07-11T10:58:38.756064,1.00270092,.0005531,3.7032,68.7953,184.9795,0.1924,0,U,37210,999,5753,0,-.111E-5,0
BEIDOU-2 IGSO-2 (C07),2010-068A,2026-07-10T15:49:37.520256,1.00275347,.0056906,47.5044,271.5406,213.4330,149.3314,0,U,37256,999,5703,0,-.197E-5,0
BEIDOU-2 IGSO-3 (C08),2011-013A,2026-07-09T12:26:44.979360,1.00261852,.00351984,62.4382,39.9419,183.2390,357.7550,0,U,37384,999,5588,0,-.172E-5,0
GSAT-8 (GAGAN/PRN 127),2011-022A,2026-07-11T12:06:35.120160,1.00271900,.0002704,2.1912,81.5279,165.6723,278.9322,0,U,37605,999,5346,0,.88E-6,0
BEIDOU-2 IGSO-4 (C09),2011-038A,2026-07-10T21:24:21.778272,1.00280201,.0160248,54.6042,165.4628,231.4112,307.2265,0,U,37763,999,5488,0,.22E-6,0
GSAT0101 (GALILEO-PFM),2011-060A,2026-07-08T13:14:56.643936,1.70475585,.0002415,56.9869,341.1826,60.6868,299.3373,0,U,37846,999,9148,0,-.74E-6,0
GSAT0102 (GALILEO-FM2),2011-060B,2026-07-08T11:27:00.571680,1.70475862,.00024239,56.9877,341.1851,11.7755,347.8886,0,U,37847,999,9148,0,-.74E-6,0
COSMOS 2476 (744),2011-064A,2026-07-10T01:01:44.907168,2.13103828,.0022247,65.2823,72.1003,236.3907,182.4431,0,U,37867,999,11425,0,-.24E-6,0
COSMOS 2477 (745),2011-064B,2026-07-11T08:57:38.603808,2.13103049,.0019225,65.2897,72.1351,237.1086,302.7003,0,U,37868,999,11427,0,-.2E-6,0
COSMOS 2475 (743),2011-064C,2026-07-11T10:21:38.703744,2.13101872,.0024878,65.2964,72.1551,251.3420,288.2380,0,U,37869,999,11428,0,-.2E-6,0
